[{"OBJECT_NAME":"GEOSCAN 3 (RS92S3)","OBJECT_ID":"2025-155T","EPOCH":"2026-03-09T22:52:10.587648","MEAN_MOTION":15.31696739,"ECCENTRICITY":0.00068078,"INCLINATION":97.4455,"RA_OF_ASC_NODE":37.9971,"ARG_OF_PERICENTER":154.1387,"MEAN_ANOMALY":206.0196,"EPHEMERIS_TYPE":0,"CLASSIFICATION_TYPE":"U","NORAD_CAT_ID":64893,"ELEMENT_SET_NO":999,"REV_AT_EPOCH":6564,"BSTAR":0.00078414081,"MEAN_MOTION_DOT":0.00023985,"MEAN_MOTION_DDOT":0},{"OBJECT_NAME":"STARLINK-35666","OBJECT_ID":"2025-244S","EPOCH":"2026-03-09T17:25:22.518912","MEAN_MOTION":15.30163345,"ECCENTRICITY":0.00010388,"INCLINATION":53.1576,"RA_OF_ASC_NODE":229.841,"ARG_OF_PERICENTER":42.1864,"MEAN_ANOMALY":317.9216,"EPHEMERIS_TYPE":0,"CLASSIFICATION_TYPE":"U","NORAD_CAT_ID":66222,"ELEMENT_SET_NO":999,"REV_AT_EPOCH":2166,"BSTAR":0.00068969153,"MEAN_MOTION_DOT":0.000201,"MEAN_MOTION_DDOT":0}]
